{
    "links": {
        "self": "http://www.neowsapp.com/rest/v1/neo/3757297?api_key=iIulBulltgU6a56xZRHN4H3l9WmuAYTsLGpBGhQ2"
    },
    "id": "3757297",
    "neo_reference_id": "3757297",
    "name": "(2016 PW38)",
    "designation": "2016 PW38",
    "nasa_jpl_url": "http://ssd.jpl.nasa.gov/sbdb.cgi?sstr=3757297",
    "absolute_magnitude_h": 22.4,
    "estimated_diameter": {
        "kilometers": {
            "estimated_diameter_min": 0.0880146521,
            "estimated_diameter_max": 0.1968067451
        },
        "meters": {
            "estimated_diameter_min": 88.0146520901,
            "estimated_diameter_max": 196.8067450894
        },
        "miles": {
            "estimated_diameter_min": 0.0546897524,
            "estimated_diameter_max": 0.122290004
        },
        "feet": {
            "estimated_diameter_min": 288.7619911632,
            "estimated_diameter_max": 645.6914415591
        }
    },
    "is_potentially_hazardous_asteroid": false,
    "close_approach_data": [
        {
            "close_approach_date": "1978-08-06",
            "close_approach_date_full": "1978-Aug-06 05:45",
            "epoch_date_close_approach": 271230300000,
            "relative_velocity": {
                "kilometers_per_second": "4.7359932173",
                "kilometers_per_hour": "17049.5755821453",
                "miles_per_hour": "10593.9432276947"
            },
            "miss_distance": {
                "astronomical": "0.2365804806",
                "lunar": "92.0298069534",
                "kilometers": "35391935.981336322",
                "miles": "21991529.2580403636"
            },
            "orbiting_body": "Earth"
        },
        {
            "close_approach_date": "1997-08-06",
            "close_approach_date_full": "1997-Aug-06 07:03",
            "epoch_date_close_approach": 870850980000,
            "relative_velocity": {
                "kilometers_per_second": "4.7093287592",
                "kilometers_per_hour": "16953.583533269",
                "miles_per_hour": "10534.2975015471"
            },
            "miss_distance": {
                "astronomical": "0.2374069815",
                "lunar": "92.3513158035",
                "kilometers": "35515578.755529405",
                "miles": "22068357.315359589"
            },
            "orbiting_body": "Earth"
        },
        {
            "close_approach_date": "2016-08-07",
            "close_approach_date_full": "2016-Aug-07 06:33",
            "epoch_date_close_approach": 1470551580000,
            "relative_velocity": {
                "kilometers_per_second": "4.6600980441",
                "kilometers_per_hour": "16776.3529589389",
                "miles_per_hour": "10424.1733149585"
            },
            "miss_distance": {
                "astronomical": "0.2393493107",
                "lunar": "93.1068818623",
                "kilometers": "35806147.066688209",
                "miles": "22248908.0916629242"
            },
            "orbiting_body": "Earth"
        },
        {
            "close_approach_date": "2035-08-08",
            "close_approach_date_full": "2035-Aug-08 20:13",
            "epoch_date_close_approach": 2070216780000,
            "relative_velocity": {
                "kilometers_per_second": "4.5863781695",
                "kilometers_per_hour": "16510.9614101268",
                "miles_per_hour": "10259.2693273091"
            },
            "miss_distance": {
                "astronomical": "0.2455108399",
                "lunar": "95.5037167211",
                "kilometers": "36727898.710951013",
                "miles": "22821658.0046414594"
            },
            "orbiting_body": "Earth"
        },
        {
            "close_approach_date": "2035-10-02",
            "close_approach_date_full": "2035-Oct-02 16:13",
            "epoch_date_close_approach": 2074954380000,
            "relative_velocity": {
                "kilometers_per_second": "9.3520827586",
                "kilometers_per_hour": "33667.4979308041",
                "miles_per_hour": "20919.6739226155"
            },
            "miss_distance": {
                "astronomical": "0.0689107149",
                "lunar": "26.8062680961",
                "kilometers": "10308896.169217263",
                "miles": "6405651.0455657094"
            },
            "orbiting_body": "Mars"
        }
    ],
    "orbital_data": {
        "orbit_id": "16",
        "orbit_determination_date": "2017-04-06 08:24:34",
        "first_observation_date": "2016-08-09",
        "last_observation_date": "2016-10-04",
        "data_arc_in_days": 56,
        "observations_used": 70,
        "orbit_uncertainty": "6",
        "minimum_orbit_intersection": ".237236",
        "jupiter_tisserand_invariant": "3.564",
        "epoch_osculation": "2459000.5",
        "eccentricity": ".4300313366295987",
        "semi_major_axis": "2.155938733517208",
        "inclination": "8.328538496460787",
        "ascending_node_longitude": "169.1791302466397",
        "orbital_period": "1156.253471153839",
        "perihelion_distance": "1.228817518251279",
        "perihelion_argument": "137.4892250795648",
        "aphelion_distance": "3.083059948783137",
        "perihelion_time": "2458752.681522715097",
        "mean_anomaly": "77.15838615691833",
        "mean_motion": ".3113504166528051",
        "equinox": "J2000",
        "orbit_class": {
            "orbit_class_type": "AMO",
            "orbit_class_description": "Near-Earth asteroid orbits similar to that of 1221 Amor",
            "orbit_class_range": "1.017 AU < q (perihelion) < 1.3 AU"
        }
    },
    "is_sentry_object": false
}